ORBCOMM-X               
1 21576U 91050C   25242.76481038  .00000472  00000+0  15297-3 0  9997
2 21576  98.3374 307.8254 0002907 339.9537  20.1539 14.43310837792870
ORBCOMM FM01            
1 23545U 95017A   25242.76386774  .00009062  00000+0  92704-3 0  9995
2 23545  69.9617 248.0696 0005155 239.2599 120.8048 14.90798915623624
ORBCOMM FM02            
1 23546U 95017B   25242.79377541  .00011603  00000+0  11533-2 0  9995
2 23546  69.9634 267.1272 0006299 233.0535 127.0044 14.91850370623280
ORBCOMM FM08            
1 25112U 97084A   25242.66336329  .00002696  00000+0  78921-3 0  9994
2 25112  45.0148  10.2929 0007111 253.6247 106.3822 14.46016363452150
ORBCOMM FM10            
1 25113U 97084B   25242.72472314  .00002836  00000+0  83187-3 0  9993
2 25113  45.0161  12.5108 0006102 223.0191 137.0184 14.45796049627306
ORBCOMM FM11            
1 25114U 97084C   25242.67310589  .00002663  00000+0  78750-3 0  9991
2 25114  45.0145  13.5272 0006923 225.0150 135.0141 14.45543245452259
ORBCOMM FM12            
1 25115U 97084D   25242.77272622  .00002696  00000+0  79647-3 0  9990
2 25115  45.0154  12.7914 0006016 221.9236 138.1156 14.45563559452066
ORBCOMM FM09            
1 25116U 97084E   25242.67333265  .00002437  00000+0  72593-3 0  9997
2 25116  45.0158  14.2765 0007302 214.3112 145.7269 14.45431384452250
